{"type":"FeatureCollection","features":[{"type":"Feature","properties":{"iso3":"TCD","name":"Chad","focus":false},"geometry":{"type":"Polygon","coordinates":[[[23.83766000000014,19.580470000000105],[23.886890000000108,15.610839999999996],[23.024590000000103,15.680720000000065],[22.56795000000011,14.944290000000137],[22.30350999999996,14.326820000000055],[22.512020000000007,14.093179999999961],[22.18329,13.78648000000004],[22.296580000000006,13.372319999999945],[22.037589999999966,12.95545999999996],[21.93680999999998,12.588180000000136],[22.288010000000043,12.646049999999946],[22.497619999999984,12.260240000000067],[22.50869,11.679360000000031],[22.876219999999932,11.384610000000123],[22.864165480244225,11.142395127807546],[22.23112918466876,10.97188873946061],[21.723821648859456,10.567055568885976],[21.000868361096167,9.475985215691509],[20.05968549976427,9.012706000194854],[19.09400800952602,9.07484691002584],[18.812009718509273,8.982914536978598],[18.911021762780507,8.630894680206353],[17.964929640380888,7.890914008002994],[16.705988396886255,7.5083275415299795],[16.456184523187346,7.734773667832968],[16.290561557691888,7.754307359239419],[16.106231723706742,7.497087917506462],[15.279460483469109,7.421924546737969],[15.436091749745742,7.692812404811889],[14.97999555833769,8.796104234243472],[14.54446658698177,8.965861314322268],[13.954218377344006,9.549494940626687],[14.171466098699028,10.021378282099931],[14.62720055508106,9.920919297724538],[14.909353875394716,9.992129421422732],[15.467872755605242,9.982336737503545],[14.92356489427496,10.891325181517473],[14.9601518083376,11.555574042197224],[14.89336000000003,12.219049999999982],[14.495787387762846,12.85939626713733],[14.595781284247607,13.33042694747786],[13.95447675950561,13.353448798063766],[13.956698846094127,13.996691189016929],[13.540393507550789,14.367133693901224],[13.972170000000006,15.684370000000058],[15.247731154041844,16.627305813050782],[15.30044111497972,17.927949937405003],[15.685740594147774,19.957180080642388],[15.903246697664315,20.387618923417506],[15.487148064850146,20.730414537025638],[15.47106000000008,21.04845000000006],[15.096887648181848,21.30851878507491],[14.851300000000037,22.862950000000126],[15.860850000000084,23.409719999999993],[23.83766000000014,19.580470000000105]]]}},{"type":"Feature","properties":{"iso3":"SEN","name":"Senegal","focus":true},"geometry":{"type":"Polygon","coordinates":[[[-16.71372880702347,13.594958604379855],[-17.126106736712615,14.373515733289224],[-17.62504269049066,14.729540513564073],[-17.18517289882223,14.919477240452862],[-16.700706346085923,15.621527411354108],[-16.463098110407884,16.13503611903846],[-16.12069007004193,16.455662543193384],[-15.623666144258692,16.369337063049812],[-15.135737270558819,16.587282416240782],[-14.577347581428981,16.59826365810281],[-14.099521450242179,16.304302273010492],[-13.435737677453062,16.03938304286619],[-12.170750291380301,14.616834214735505],[-12.12488745772126,13.994727484589788],[-11.927716030311615,13.422075100147396],[-11.55339779300543,13.141213690641067],[-11.467899135778524,12.754518947800975],[-11.51394283695059,12.442987575729418],[-11.658300950557932,12.386582749882836],[-12.203564825885634,12.465647691289405],[-12.27859900557344,12.354440008997287],[-12.499050665730564,12.332089952031057],[-13.217818162478238,12.575873521367967],[-15.54847693527401,12.628170070847347],[-15.816574266004254,12.515567124883347],[-16.147716844130585,12.547761542201187],[-16.677451951554573,12.384851589401052],[-16.841524624081273,13.15139394780256],[-15.931295945692211,13.130284125211332],[-15.141163295949468,13.509511623585238],[-14.712197231494628,13.298206691943777],[-14.277701788784555,13.280585028532244],[-13.844963344772408,13.505041612192002],[-14.046992356817482,13.79406789800045],[-14.376713833055788,13.625680243377374],[-14.687030808968487,13.630356960499784],[-15.08173539881382,13.876491807505985],[-15.39877031092446,13.86036876063092],[-15.624596320039942,13.62358734786956],[-16.71372880702347,13.594958604379855]]]}},{"type":"Feature","properties":{"iso3":"MLI","name":"Mali","focus":true},"geometry":{"type":"Polygon","coordinates":[[[-11.51394283695059,12.442987575729418],[-11.467899135778524,12.754518947800975],[-11.55339779300543,13.141213690641067],[-11.927716030311615,13.422075100147396],[-12.12488745772126,13.994727484589788],[-12.170750291380301,14.616834214735505],[-11.834207526079467,14.79909699142894],[-11.666078253617854,15.388208319556298],[-11.349095017939504,15.411256008358478],[-10.650791388379417,15.132745876521426],[-10.086846482778213,15.330485744686271],[-9.700255092802706,15.264107367407362],[-9.55023840985939,15.486496893775438],[-5.537744309908447,15.501689764869257],[-5.315277268891933,16.20185374599184],[-5.488522508150439,16.325102037007966],[-6.453786586930335,24.956590684503425],[-4.923337368174231,24.974574082941],[1.8232275732590324,20.610809434486043],[2.06099083823392,20.142233384679486],[3.1466610042539003,19.693578599521445],[3.158133172222705,19.057364203360038],[4.267419467800039,19.155265204337],[4.2702099951438015,16.852227484601215],[3.7234216650634835,16.184283759012615],[3.6382589046464773,15.568119818580456],[2.749992709981484,15.409524847876696],[1.3855281917468576,15.323561102759172],[1.0157833186984817,14.96818227788799],[-0.2662572900305804,14.924308986872148],[-0.5158544580003479,15.116157741755728],[-1.0663634912056636,14.973815009007765],[-2.001035122068771,14.559008287000893],[-2.1918245100903846,14.246417548067356],[-2.9676944645205765,13.79815033615151],[-3.1037068343127596,13.541266791228594],[-3.522802700199861,13.337661647998615],[-4.006390753587226,13.472485459848116],[-4.28040503581488,13.228443508349741],[-4.427166103523803,12.542645575404295],[-5.220941941743121,11.713858954307227],[-5.1978425765086484,11.37514577885014],[-5.470564947929006,10.951269842976048],[-5.404341599946974,10.370736802609146],[-6.050452032892267,10.096360785355444],[-6.205222947606431,10.524060777219134],[-6.493965013037268,10.411302801958271],[-6.666460944027548,10.430810655148449],[-6.8505065576350574,10.138993841996239],[-7.622759161804809,10.147236232946796],[-7.899589809592372,10.297382106970828],[-8.029943610048619,10.206534939001713],[-8.33537716310974,10.494811916541934],[-8.282357143578281,10.792597357623846],[-8.407310756860028,10.909256903522762],[-8.620321010767128,10.810890814655183],[-8.581305304386774,11.136245632364805],[-8.376304897484914,11.393645941610629],[-8.786099005559464,11.812560939984706],[-8.90526485842453,12.088358059126437],[-9.127473517279583,12.308060411015333],[-9.327616339546012,12.334286200403454],[-10.165213792348837,11.844083563682744],[-10.593223842806282,11.92397532800598],[-10.870829637078215,12.17788747807211],[-11.03655595543826,12.211244615116515],[-11.456168585648271,12.076834214725338],[-11.51394283695059,12.442987575729418]]]}},{"type":"Feature","properties":{"iso3":"MRT","name":"Mauritania","focus":false},"geometry":{"type":"Polygon","coordinates":[[[-17.06342322434257,20.999752102130827],[-16.845193650773993,21.33332347257488],[-12.929101935263532,21.327070624267563],[-13.118754441774712,22.771220201096256],[-12.874221564169575,23.284832261645178],[-11.937224493853321,23.374594224536168],[-11.96941891117116,25.933352769468268],[-8.6872936670174,25.881056219988906],[-8.684399786809053,27.395744126896005],[-4.923337368174231,24.974574082941],[-6.453786586930335,24.956590684503425],[-5.488522508150439,16.325102037007966],[-5.315277268891933,16.20185374599184],[-5.537744309908447,15.501689764869257],[-9.55023840985939,15.486496893775438],[-9.700255092802706,15.264107367407362],[-10.086846482778213,15.330485744686271],[-10.650791388379417,15.132745876521426],[-11.349095017939504,15.411256008358478],[-11.666078253617854,15.388208319556298],[-11.834207526079467,14.79909699142894],[-12.170750291380301,14.616834214735505],[-13.435737677453062,16.03938304286619],[-14.099521450242179,16.304302273010492],[-14.577347581428981,16.59826365810281],[-15.135737270558819,16.587282416240782],[-15.623666144258692,16.369337063049812],[-16.12069007004193,16.455662543193384],[-16.463098110407884,16.13503611903846],[-16.549707810929064,16.673892116761962],[-16.270551723688357,17.166962795474873],[-16.14634741867485,18.108481553616656],[-16.37765112961327,19.593817246981985],[-16.277838100641517,20.0925206568147],[-16.536323614965468,20.567866319251493],[-17.06342322434257,20.999752102130827]]]}},{"type":"Feature","properties":{"iso3":"BEN","name":"Benin","focus":false},"geometry":{"type":"Polygon","coordinates":[[[2.6917016943562544,6.258817246928629],[1.8652405127123188,6.142157701029731],[1.618950636409238,6.832038072126238],[1.664477573258381,9.12859039960938],[1.46304284018467,9.334624335157088],[1.425060662450136,9.825395412633],[0.7723356461714843,10.470808213742359],[0.8995630224740694,10.99733938236426],[1.2434696793764886,11.110510769083461],[1.4471781754710662,11.547719224488858],[1.9359855485198807,11.641150214072553],[2.49016360841793,12.233052069543675],[2.8486430192265857,12.23563589115821],[3.611180454125559,11.660167141155968],[3.572216424177469,11.32793935795152],[3.7971122575117136,10.734745591673105],[3.600070021182802,10.332186184119408],[3.7054382666259187,10.063210354040208],[2.912308383810256,9.137607937044322],[2.723792758809509,8.50684540448971],[2.6917016943562544,6.258817246928629]]]}},{"type":"Feature","properties":{"iso3":"NER","name":"Niger","focus":false},"geometry":{"type":"Polygon","coordinates":[[[14.851300000000037,22.862950000000126],[15.096887648181848,21.30851878507491],[15.47106000000008,21.04845000000006],[15.487148064850146,20.730414537025638],[15.903246697664315,20.387618923417506],[15.685740594147774,19.957180080642388],[15.30044111497972,17.927949937405003],[15.247731154041844,16.627305813050782],[13.972170000000006,15.684370000000058],[13.540393507550789,14.367133693901224],[13.956698846094127,13.996691189016929],[13.95447675950561,13.353448798063766],[14.595781284247607,13.33042694747786],[14.495787387762846,12.85939626713733],[14.213530714584635,12.802035427293347],[14.181336297266794,12.483656927943116],[13.995352817448293,12.461565253138303],[13.318701613018561,13.556356309457826],[13.083987257548813,13.596147162322495],[12.302071160540523,13.037189032437524],[11.527803175511394,13.328980007373588],[10.989593133191534,13.387322699431195],[10.701031935273706,13.246917832894084],[10.114814487354693,13.27725189864941],[9.524928012742947,12.851102199754479],[9.014933302454438,12.826659247280418],[7.804671258178786,13.343526923063747],[7.330746697630019,13.0980380314612],[6.820441928747754,13.115091254117518],[6.445426059605637,13.492768459522678],[5.443058302440136,13.865923977102227],[4.368343540066007,13.747481594289411],[4.107945997747322,13.531215725147831],[3.9672827490488487,12.956108710171575],[3.6806335791258107,12.552903347214226],[3.611180454125559,11.660167141155968],[2.8486430192265857,12.23563589115821],[2.49016360841793,12.233052069543675],[2.1544735042499212,11.940150051313339],[2.177107781593776,12.625017808477535],[1.0241032242974768,12.851825669806574],[0.9930456884900708,13.335749620003824],[0.429927605805517,13.988733018443924],[0.29564639649510127,14.444234930880654],[0.3748922054146817,14.92890818934613],[1.0157833186984817,14.96818227788799],[1.3855281917468576,15.323561102759172],[2.749992709981484,15.409524847876696],[3.6382589046464773,15.568119818580456],[3.7234216650634835,16.184283759012615],[4.2702099951438015,16.852227484601215],[4.267419467800039,19.155265204337],[5.677565952180686,19.601206976799716],[8.572893100629784,21.565660712159143],[11.999505649471613,23.47166840259645],[13.581424594790462,23.04050608976928],[14.143870883855243,22.491288967371133],[14.851300000000037,22.862950000000126]]]}},{"type":"Feature","properties":{"iso3":"NGA","name":"Nigeria","focus":true},"geometry":{"type":"Polygon","coordinates":[[[2.6917016943562544,6.258817246928629],[2.723792758809509,8.50684540448971],[2.912308383810256,9.137607937044322],[3.7054382666259187,10.063210354040208],[3.600070021182802,10.332186184119408],[3.7971122575117136,10.734745591673105],[3.572216424177469,11.32793935795152],[3.6806335791258107,12.552903347214226],[3.9672827490488487,12.956108710171575],[4.107945997747322,13.531215725147831],[4.368343540066007,13.747481594289411],[5.443058302440136,13.865923977102227],[6.445426059605637,13.492768459522678],[6.820441928747754,13.115091254117518],[7.330746697630019,13.0980380314612],[7.804671258178786,13.343526923063747],[9.014933302454438,12.826659247280418],[9.524928012742947,12.851102199754479],[10.114814487354693,13.27725189864941],[10.701031935273706,13.246917832894084],[10.989593133191534,13.387322699431195],[11.527803175511394,13.328980007373588],[12.302071160540523,13.037189032437524],[13.083987257548813,13.596147162322495],[13.318701613018561,13.556356309457826],[13.995352817448293,12.461565253138303],[14.181336297266794,12.483656927943116],[14.577177768622533,12.085360826053503],[14.415378859116684,11.572368882692075],[13.572949659894562,10.798565985553566],[13.167599724997103,9.640626328973411],[12.955467970438974,9.417771714714704],[12.753671502339216,8.717762762888995],[12.218872104550599,8.305824082874324],[12.063946160539558,7.799808457872302],[11.839308709366803,7.397042344589437],[11.74577436691851,6.981382961449754],[11.058787876030351,6.6444267846905944],[10.497375115611419,7.0553577742755635],[10.118276808318257,7.03876963950988],[9.522705926154401,6.453482367372117],[9.233162876023044,6.444490668153335],[8.500287713259695,4.7719829370268485],[7.462108188515941,4.412108262546241],[7.0825964697644395,4.4646890324032285],[6.6980721370806,4.240594183769517],[5.898172641634687,4.262453314628985],[5.3628048030908815,4.887970689305959],[5.033574252959369,5.611802476418234],[4.325607130560684,6.2706511499234665],[2.6917016943562544,6.258817246928629]]]}},{"type":"Feature","properties":{"iso3":"CMR","name":"Cameroon","focus":false},"geometry":{"type":"Polygon","coordinates":[[[14.495787387762846,12.85939626713733],[14.89336000000003,12.219049999999982],[14.9601518083376,11.555574042197224],[14.92356489427496,10.891325181517473],[15.467872755605242,9.982336737503545],[14.909353875394716,9.992129421422732],[14.62720055508106,9.920919297724538],[14.171466098699028,10.021378282099931],[13.954218377344006,9.549494940626687],[14.54446658698177,8.965861314322268],[14.97999555833769,8.796104234243472],[15.436091749745742,7.692812404811889],[14.776545444404576,6.408498033062045],[14.536560092841114,6.2269587264206905],[14.459407179429348,5.4517605656103],[14.558935988023507,5.03059764243153],[14.47837243008047,4.732605495620447],[14.950953403389661,4.210389309094921],[15.036219516671252,3.8513672957471243],[15.405395948964383,3.33530060466434],[15.862732374747482,3.0135372989989833],[16.012852410555354,2.267639675298085],[15.940918816805066,1.7276726342802957],[14.33781253424658,2.2278746606494906],[12.951333855855609,2.32161570882694],[12.359380323952221,2.19281220133945],[11.75166548019979,2.3267575138399934],[11.276449008843713,2.261050930180872],[9.649158155972628,2.2838660750377358],[9.795195753629457,3.073404445809117],[9.404366896206,3.734526882335203],[8.948115675501072,3.9041289331171356],[8.744923943729418,4.35221527751996],[8.48881554529089,4.495617377129918],[8.500287713259695,4.7719829370268485],[8.757532993208628,5.479665839047911],[9.233162876023044,6.444490668153335],[9.522705926154401,6.453482367372117],[10.118276808318257,7.03876963950988],[10.497375115611419,7.0553577742755635],[11.058787876030351,6.6444267846905944],[11.74577436691851,6.981382961449754],[11.839308709366803,7.397042344589437],[12.063946160539558,7.799808457872302],[12.218872104550599,8.305824082874324],[12.753671502339216,8.717762762888995],[12.955467970438974,9.417771714714704],[13.167599724997103,9.640626328973411],[13.572949659894562,10.798565985553566],[14.415378859116684,11.572368882692075],[14.577177768622533,12.085360826053503],[14.181336297266794,12.483656927943116],[14.213530714584635,12.802035427293347],[14.495787387762846,12.85939626713733]]]}},{"type":"Feature","properties":{"iso3":"TGO","name":"Togo","focus":false},"geometry":{"type":"Polygon","coordinates":[[[0.8995630224740694,10.99733938236426],[0.7723356461714843,10.470808213742359],[1.425060662450136,9.825395412633],[1.46304284018467,9.334624335157088],[1.664477573258381,9.12859039960938],[1.618950636409238,6.832038072126238],[1.8652405127123188,6.142157701029731],[1.0601216976049272,5.928837388528876],[0.5703841487748491,6.914358628767189],[0.4909574723422451,7.411744289576475],[0.7120292496868785,8.31246450442383],[0.46119184734212126,8.677222601756014],[0.3675799902453889,10.19121287682718],[-0.04978471515994442,10.706917832883931],[0.023802524423700785,11.018681748900804],[0.8995630224740694,10.99733938236426]]]}},{"type":"Feature","properties":{"iso3":"GHA","name":"Ghana","focus":false},"geometry":{"type":"Polygon","coordinates":[[[0.023802524423700785,11.018681748900804],[-0.04978471515994442,10.706917832883931],[0.3675799902453889,10.19121287682718],[0.46119184734212126,8.677222601756014],[0.7120292496868785,8.31246450442383],[0.4909574723422451,7.411744289576475],[0.5703841487748491,6.914358628767189],[1.0601216976049272,5.928837388528876],[-0.5076379052659377,5.3434726017426755],[-1.0636246402941936,5.000547797053812],[-1.9647065901675944,4.710462144383371],[-2.856125047202397,4.994475816259509],[-2.8107014632178395,5.38905121502411],[-3.244370083011262,6.250471503113502],[-2.9835849674503265,7.379704901555513],[-2.562189500326241,8.219627793811483],[-2.9638962467471117,10.395334784380083],[-2.9404093082704605,10.962690334512558],[-1.2033577132114317,11.009819240762738],[-0.7615758935481834,10.936929633015055],[-0.43870154458858224,11.098340969278722],[0.023802524423700785,11.018681748900804]]]}},{"type":"Feature","properties":{"iso3":"CIV","name":"Ivory Coast","focus":false},"geometry":{"type":"Polygon","coordinates":[[[-8.229337124046822,10.1290202905639],[-7.899589809592372,10.297382106970828],[-7.622759161804809,10.147236232946796],[-6.8505065576350574,10.138993841996239],[-6.666460944027548,10.430810655148449],[-6.493965013037268,10.411302801958271],[-6.205222947606431,10.524060777219134],[-6.050452032892267,10.096360785355444],[-5.404341599946974,10.370736802609146],[-4.954653286143099,10.152713934769736],[-4.7798835921319665,9.821984768101743],[-4.3302469547603835,9.610834865757141],[-3.9804491845766847,9.8623440617217],[-3.511898972986273,9.90032623945622],[-2.8274963037127065,9.642460842319778],[-2.562189500326241,8.219627793811483],[-2.9835849674503265,7.379704901555513],[-3.244370083011262,6.250471503113502],[-2.8107014632178395,5.38905121502411],[-2.856125047202397,4.994475816259509],[-3.3110843571000714,4.984295559098015],[-4.008819545904942,5.179813340674315],[-4.649917364917911,5.168263658057086],[-5.8344962223445265,4.993700669775137],[-7.5189412093304355,4.338288479017308],[-7.7121593896697505,4.364565944837722],[-7.635368211284031,5.188159084489456],[-7.539715135111763,5.313345241716519],[-7.570152553731688,5.707352199725904],[-7.993692592795881,6.126189683451543],[-8.311347622094019,6.193033148621083],[-8.60288021486862,6.4675641951716605],[-8.385451626000574,6.911800645368743],[-8.48544552248535,7.39520783124307],[-8.439298468448698,7.686042792181738],[-8.280703497744938,7.687179673692157],[-8.221792364932199,8.123328762235573],[-8.299048631208564,8.316443589710303],[-8.20349890790088,8.455453192575447],[-7.832100389019188,8.575704250518626],[-8.07911373537435,9.376223863152035],[-8.30961646161225,9.789531968622441],[-8.229337124046822,10.1290202905639]]]}},{"type":"Feature","properties":{"iso3":"GIN","name":"Guinea","focus":false},"geometry":{"type":"Polygon","coordinates":[[[-13.700476040084325,12.586182969610194],[-13.217818162478238,12.575873521367967],[-12.499050665730564,12.332089952031057],[-12.27859900557344,12.354440008997287],[-12.203564825885634,12.465647691289405],[-11.658300950557932,12.386582749882836],[-11.51394283695059,12.442987575729418],[-11.456168585648271,12.076834214725338],[-11.03655595543826,12.211244615116515],[-10.870829637078215,12.17788747807211],[-10.593223842806282,11.92397532800598],[-10.165213792348837,11.844083563682744],[-9.327616339546012,12.334286200403454],[-9.127473517279583,12.308060411015333],[-8.90526485842453,12.088358059126437],[-8.786099005559464,11.812560939984706],[-8.376304897484914,11.393645941610629],[-8.581305304386774,11.136245632364805],[-8.620321010767128,10.810890814655183],[-8.407310756860028,10.909256903522762],[-8.282357143578281,10.792597357623846],[-8.33537716310974,10.494811916541934],[-8.029943610048619,10.206534939001713],[-8.229337124046822,10.1290202905639],[-8.30961646161225,9.789531968622441],[-8.07911373537435,9.376223863152035],[-7.832100389019188,8.575704250518626],[-8.20349890790088,8.455453192575447],[-8.299048631208564,8.316443589710303],[-8.221792364932199,8.123328762235573],[-8.280703497744938,7.687179673692157],[-8.722123582382125,7.71167430259851],[-8.926064622422004,7.309037380396376],[-9.208786383490846,7.313920803247953],[-9.40334815106975,7.526905218938907],[-9.337279832384581,7.9285344507113535],[-9.755342169625834,8.541055202666925],[-10.505477260774668,8.348896389189605],[-10.494315151399633,8.715540676300435],[-10.654770473665891,8.977178452994195],[-10.622395188835041,9.267910061068278],[-11.11748124840733,10.045872911006285],[-11.917277390988659,10.046983954300558],[-12.150338100625005,9.858571682164381],[-12.425928514037565,9.835834051955956],[-12.71195756677308,9.342711696810767],[-13.246550258832515,8.903048610871508],[-14.074044969122282,9.886166897008252],[-14.579698859098258,10.214467271358515],[-14.693231980843505,10.656300767454042],[-14.839553798877944,10.87657156009814],[-15.130311245168173,11.040411688679526],[-14.685687221728898,11.527823798056488],[-14.382191534878729,11.509271958863692],[-14.121406419317779,11.677117010947697],[-13.900799729863776,11.678718980348748],[-13.743160773157413,11.811269029177412],[-13.828271857142125,12.142644151249044],[-13.718743658899513,12.24718557377551],[-13.700476040084325,12.586182969610194]]]}},{"type":"Feature","properties":{"iso3":"GNB","name":"Guinea-Bissau","focus":false},"geometry":{"type":"Polygon","coordinates":[[[-16.677451951554573,12.384851589401052],[-16.147716844130585,12.547761542201187],[-15.816574266004254,12.515567124883347],[-15.54847693527401,12.628170070847347],[-13.700476040084325,12.586182969610194],[-13.718743658899513,12.24718557377551],[-13.828271857142125,12.142644151249044],[-13.743160773157413,11.811269029177412],[-13.900799729863776,11.678718980348748],[-14.121406419317779,11.677117010947697],[-14.382191534878729,11.509271958863692],[-14.685687221728898,11.527823798056488],[-15.130311245168173,11.040411688679526],[-15.664180467175527,11.458474025920795],[-16.085214199273565,11.52459402103824],[-16.314786749730203,11.80651479740655],[-16.30894731288123,11.95870189050612],[-16.61383826340328,12.170911159712702],[-16.677451951554573,12.384851589401052]]]}},{"type":"Feature","properties":{"iso3":"LBR","name":"Liberia","focus":false},"geometry":{"type":"Polygon","coordinates":[[[-8.439298468448698,7.686042792181738],[-8.48544552248535,7.39520783124307],[-8.385451626000574,6.911800645368743],[-8.60288021486862,6.4675641951716605],[-8.311347622094019,6.193033148621083],[-7.993692592795881,6.126189683451543],[-7.570152553731688,5.707352199725904],[-7.539715135111763,5.313345241716519],[-7.635368211284031,5.188159084489456],[-7.7121593896697505,4.364565944837722],[-7.974107224957251,4.355755113131963],[-9.004793667018674,4.8324185245922],[-9.913420376006684,5.593560695819207],[-10.765383876986645,6.140710760925558],[-11.438779466182055,6.7859168563057475],[-11.19980180504828,7.1058456486247366],[-11.146704270868383,7.396706447779536],[-10.23009355309128,8.406205552601293],[-9.755342169625834,8.541055202666925],[-9.337279832384581,7.9285344507113535],[-9.40334815106975,7.526905218938907],[-9.208786383490846,7.313920803247953],[-8.926064622422004,7.309037380396376],[-8.722123582382125,7.71167430259851],[-8.439298468448698,7.686042792181738]]]}},{"type":"Feature","properties":{"iso3":"SLE","name":"Sierra Leone","focus":false},"geometry":{"type":"Polygon","coordinates":[[[-13.246550258832515,8.903048610871508],[-12.71195756677308,9.342711696810767],[-12.425928514037565,9.835834051955956],[-12.150338100625005,9.858571682164381],[-11.917277390988659,10.046983954300558],[-11.11748124840733,10.045872911006285],[-10.622395188835041,9.267910061068278],[-10.654770473665891,8.977178452994195],[-10.494315151399633,8.715540676300435],[-10.505477260774668,8.348896389189605],[-10.23009355309128,8.406205552601293],[-11.146704270868383,7.396706447779536],[-11.19980180504828,7.1058456486247366],[-11.438779466182055,6.7859168563057475],[-11.70819454593574,6.860098374860726],[-12.428098924193819,7.26294200279203],[-12.949049038128194,7.798645738145738],[-13.124025437868482,8.163946438016978],[-13.246550258832515,8.903048610871508]]]}},{"type":"Feature","properties":{"iso3":"BFA","name":"Burkina Faso","focus":true},"geometry":{"type":"Polygon","coordinates":[[[-5.404341599946974,10.370736802609146],[-5.470564947929006,10.951269842976048],[-5.1978425765086484,11.37514577885014],[-5.220941941743121,11.713858954307227],[-4.427166103523803,12.542645575404295],[-4.28040503581488,13.228443508349741],[-4.006390753587226,13.472485459848116],[-3.522802700199861,13.337661647998615],[-3.1037068343127596,13.541266791228594],[-2.9676944645205765,13.79815033615151],[-2.1918245100903846,14.246417548067356],[-2.001035122068771,14.559008287000893],[-1.0663634912056636,14.973815009007765],[-0.5158544580003479,15.116157741755728],[-0.2662572900305804,14.924308986872148],[0.3748922054146817,14.92890818934613],[0.29564639649510127,14.444234930880654],[0.429927605805517,13.988733018443924],[0.9930456884900708,13.335749620003824],[1.0241032242974768,12.851825669806574],[2.177107781593776,12.625017808477535],[2.1544735042499212,11.940150051313339],[1.9359855485198807,11.641150214072553],[1.4471781754710662,11.547719224488858],[1.2434696793764886,11.110510769083461],[0.8995630224740694,10.99733938236426],[-0.43870154458858224,11.098340969278722],[-0.7615758935481834,10.936929633015055],[-1.2033577132114317,11.009819240762738],[-2.9404093082704605,10.962690334512558],[-2.9638962467471117,10.395334784380083],[-2.8274963037127065,9.642460842319778],[-3.511898972986273,9.90032623945622],[-3.9804491845766847,9.8623440617217],[-4.3302469547603835,9.610834865757141],[-4.7798835921319665,9.821984768101743],[-4.954653286143099,10.152713934769736],[-5.404341599946974,10.370736802609146]]]}},{"type":"Feature","properties":{"iso3":"GMB","name":"Gambia","focus":false},"geometry":{"type":"Polygon","coordinates":[[[-16.71372880702347,13.594958604379855],[-15.624596320039942,13.62358734786956],[-15.39877031092446,13.86036876063092],[-15.08173539881382,13.876491807505985],[-14.687030808968487,13.630356960499784],[-14.376713833055788,13.625680243377374],[-14.046992356817482,13.79406789800045],[-13.844963344772408,13.505041612192002],[-14.277701788784555,13.280585028532244],[-14.712197231494628,13.298206691943777],[-15.141163295949468,13.509511623585238],[-15.931295945692211,13.130284125211332],[-16.841524624081273,13.15139394780256],[-16.71372880702347,13.594958604379855]]]}}]}